OBJECT_NAME,OBJECT_ID,EPOCH,MEAN_MOTION,ECCENTRICITY,INCLINATION,RA_OF_ASC_NODE,ARG_OF_PERICENTER,MEAN_ANOMALY,EPHEMERIS_TYPE,CLASSIFICATION_TYPE,NORAD_CAT_ID,ELEMENT_SET_NO,REV_AT_EPOCH,BSTAR,MEAN_MOTION_DOT,MEAN_MOTION_DDOT
2024-092K,2024-092K,2026-06-11T15:04:03.908064,15.36448020,.0007818,97.6555,295.2441,164.0524,196.0967,0,U,59809,999,11438,.51302E-3,.18196E-3,0
2024-095A,2024-095A,2026-06-11T17:07:53.270400,15.11288620,.0001648,97.5345,241.7004,341.2289,18.8880,0,U,59810,999,11331,.24239E-3,.4016E-4,0
STARLINK-31947,2024-097A,2026-06-11T03:43:02.809632,15.27579408,.00009276,43.0132,106.3119,282.6022,77.4726,0,U,59835,999,11621,.23175924E-4,.376E-5,0
STARLINK-31929,2024-097B,2026-06-11T03:06:15.167808,15.27580047,.00011912,43.0036,106.9677,270.4821,89.5894,0,U,59836,999,11620,.34087554E-4,.676E-5,0
STARLINK-31927,2024-097C,2026-06-11T13:33:53.743968,15.27578732,.0001742,43.0139,104.2195,273.4978,86.5675,0,U,59837,999,11627,-.69988E-5,-.455E-5,0
STARLINK-31855,2024-097D,2026-06-11T03:37:29.545824,15.27574281,.0000554,42.9987,106.2621,256.8229,103.2561,0,U,59838,999,11621,-.36206E-4,-.1258E-4,0
STARLINK-31887,2024-097E,2026-06-11T12:36:44.634240,15.27577347,.0000773,43.0039,104.7768,263.7708,96.3055,0,U,59839,999,11626,-.68889E-5,-.451E-5,0
STARLINK-31852,2024-097G,2026-06-11T12:04:37.197120,15.27575700,.0001318,43.0019,96.8245,273.1736,86.8965,0,U,59841,999,11635,.21705E-4,.335E-5,0
STARLINK-31906,2024-097H,2026-06-11T02:45:54.054144,15.27583459,.00009204,43.0010,106.8595,249.4877,110.5876,0,U,59842,999,11620,.59107647E-4,.1365E-4,0
STARLINK-31857,2024-097J,2026-06-11T03:28:14.809440,15.27579567,.00009356,43.0073,106.2193,276.2146,83.8599,0,U,59843,999,11621,-.41738846E-4,-.141E-4,0
STARLINK-31851,2024-097K,2026-06-11T13:13:32.467008,15.27574856,.0000596,42.9925,104.1173,273.6895,86.3888,0,U,59844,999,11627,.61758E-5,-.92E-6,0
STARLINK-31903,2024-097L,2026-06-11T02:25:05.459232,15.27578117,.00018969,43.0033,99.8255,273.5567,86.5068,0,U,59845,999,11628,-.18497181E-4,-.771E-5,0
STARLINK-31922,2024-097M,2026-06-11T03:33:47.673216,15.27575672,.00014294,43.0063,106.2529,269.5865,90.4823,0,U,59846,999,11621,-.29822742E-4,-.1083E-4,0
STARLINK-31889,2024-097N,2026-06-11T12:44:08.670624,15.27577625,.0000922,43.0016,104.8191,261.1151,98.9597,0,U,59847,999,11626,.10394E-4,.24E-6,0
STARLINK-31859,2024-097P,2026-06-11T02:34:19.523424,15.27587260,.0001169,43.0069,99.8724,264.6782,95.3936,0,U,59848,999,11628,.59852028E-4,.1386E-4,0
STARLINK-31895,2024-097Q,2026-06-10T08:00:01.999872,15.27544060,.00014886,43.0026,111.0441,283.4852,190.9637,0,U,59849,999,577,.26159722E-2,.72353E-3,0
STARLINK-31899,2024-097R,2026-06-11T18:00:02.000160,15.27526158,.0001395,43.0024,103.0888,269.1843,63.8810,0,U,59850,999,588,.20127E-2,.55449E-3,0
STARLINK-31896,2024-097S,2026-06-11T13:30:10.820736,15.27582318,.0001323,43.0031,104.1954,262.2929,97.7773,0,U,59851,999,11627,.30119E-4,.567E-5,0
STARLINK-31892,2024-097U,2026-06-11T02:57:00.080640,15.27576972,.00013641,43.0038,106.9176,270.8916,89.1780,0,U,59853,999,11620,.18691503E-4,.252E-5,0
STARLINK-31891,2024-097V,2026-06-11T03:02:33.239040,15.27576964,.00011874,43.0029,106.9461,270.2223,89.8493,0,U,59854,999,11620,.15599834E-4,.167E-5,0
STARLINK-31882,2024-097W,2026-06-11T02:28:47.244576,15.27580403,.00018429,43.0134,99.8414,283.2282,76.8364,0,U,59855,999,11628,.29454367E-4,.548E-5,0
STARLINK-31691,2024-097X,2026-06-11T03:22:41.354688,15.27579348,.00009188,43.0025,106.1843,270.3409,89.7337,0,U,59856,999,11621,.19288067E-4,.269E-5,0
STARLINK-31569,2024-097Y,2026-06-11T13:39:27.546048,15.27570612,.0001069,43.0038,104.2453,257.6464,102.4268,0,U,59857,999,11627,-.5883E-5,-.424E-5,0
STARLINK-31654,2024-098A,2026-06-11T03:17:52.410624,15.27575871,.00009024,43.0113,102.8344,269.4758,90.5991,0,U,59858,999,11621,.385026E-6,-.252E-5,0
STARLINK-31442,2024-098B,2026-06-11T03:28:56.296128,15.27579679,.00016311,43.0069,114.1090,277.1094,82.9572,0,U,59859,999,11609,.3260177E-4,.635E-5,0
STARLINK-31651,2024-098C,2026-06-11T13:36:53.787744,15.27587781,.0002778,43.0041,107.8169,268.9680,91.0853,0,U,59860,999,11620,.53102E-4,.1199E-4,0
STARLINK-31584,2024-098E,2026-06-11T03:57:13.198176,15.27554814,.00007268,43.0095,109.9606,273.7500,86.3269,0,U,59862,999,11614,-.88320868E-4,-.269E-4,0
STARLINK-31950,2024-098F,2026-06-11T13:48:02.076192,15.27580310,.0000617,43.0044,107.8712,267.6754,92.4027,0,U,59863,999,11620,.14104E-4,.126E-5,0
STARLINK-31931,2024-098G,2026-06-11T03:14:50.407296,15.27571514,.00008767,43.0049,110.5925,259.6466,100.4287,0,U,59864,999,11613,-.26488594E-4,-.991E-5,0
STARLINK-31938,2024-098H,2026-06-11T13:07:18.647904,15.27588560,.0000749,43.0075,107.6554,276.6440,83.4327,0,U,59865,999,11620,.1836E-4,.243E-5,0
