2024-092K               
1 59809U 24092K   26162.62782301  .00018196  00000+0  51302-3 0  9992
2 59809  97.6555 295.2441 0007818 164.0524 196.0967 15.36448020114381
2024-095A               
1 59810U 24095A   26162.71381100  .00004016  00000+0  24239-3 0  9994
2 59810  97.5345 241.7004 0001648 341.2289  18.8880 15.11288620113310
STARLINK-31947          
1 59835U 24097A   26162.15489363  .00000376  00000+0  23176-4 0  9996
2 59835  43.0132 106.3119 0000927 282.6022  77.4726 15.27579408116218
STARLINK-31929          
1 59836U 24097B   26162.12934222  .00000676  00000+0  34088-4 0  9990
2 59836  43.0036 106.9677 0001191 270.4821  89.5894 15.27580047116203
STARLINK-31927          
1 59837U 24097C   26162.56520537 -.00000455  00000+0 -69988-5 0  9994
2 59837  43.0139 104.2195 0001742 273.4978  86.5675 15.27578732116271
STARLINK-31855          
1 59838U 24097D   26162.15103641 -.00001258  00000+0 -36206-4 0  9991
2 59838  42.9987 106.2621 0000554 256.8229 103.2561 15.27574281116211
STARLINK-31887          
1 59839U 24097E   26162.52551660 -.00000451  00000+0 -68889-5 0  9998
2 59839  43.0039 104.7768 0000773 263.7708  96.3055 15.27577347116260
STARLINK-31852          
1 59841U 24097G   26162.50320830  .00000335  00000+0  21705-4 0  9996
2 59841  43.0019  96.8245 0001318 273.1736  86.8965 15.27575700116359
STARLINK-31906          
1 59842U 24097H   26162.11520896  .00001365  00000+0  59108-4 0  9990
2 59842  43.0010 106.8595 0000920 249.4877 110.5876 15.27583459116201
STARLINK-31857          
1 59843U 24097J   26162.14461585 -.00001410  00000+0 -41739-4 0  9997
2 59843  43.0073 106.2193 0000935 276.2146  83.8599 15.27579567116212
STARLINK-31851          
1 59844U 24097K   26162.55107022 -.00000092  00000+0  61758-5 0  9994
2 59844  42.9925 104.1173 0000596 273.6895  86.3888 15.27574856116278
STARLINK-31903          
1 59845U 24097L   26162.10075763 -.00000771  00000+0 -18497-4 0  9998
2 59845  43.0033  99.8255 0001896 273.5567  86.5068 15.27578117116288
STARLINK-31922          
1 59846U 24097M   26162.14846844 -.00001083  00000+0 -29823-4 0  9991
2 59846  43.0063 106.2529 0001429 269.5865  90.4823 15.27575672116216
STARLINK-31889          
1 59847U 24097N   26162.53065591  .00000024  00000+0  10394-4 0  9992
2 59847  43.0016 104.8191 0000922 261.1151  98.9597 15.27577625116263
STARLINK-31859          
1 59848U 24097P   26162.10717041  .00001386  00000+0  59852-4 0  9994
2 59848  43.0069  99.8724 0001169 264.6782  95.3936 15.27587260116285
STARLINK-31895          
1 59849U 24097Q   26161.33335648  .00072353  00000+0  26160-2 0  9994
2 59849  43.0026 111.0441 0001488 283.4852 190.9637 15.27544060  5775
STARLINK-31899          
1 59850U 24097R   26162.75002315  .00055449  00000+0  20127-2 0  9999
2 59850  43.0024 103.0888 0001395 269.1843  63.8810 15.27526158  5880
STARLINK-31896          
1 59851U 24097S   26162.56262524  .00000567  00000+0  30119-4 0  9994
2 59851  43.0031 104.1954 0001323 262.2929  97.7773 15.27582318116275
STARLINK-31892          
1 59853U 24097U   26162.12291760  .00000252  00000+0  18692-4 0  9995
2 59853  43.0038 106.9176 0001364 270.8916  89.1780 15.27576972116201
STARLINK-31891          
1 59854U 24097V   26162.12677360  .00000167  00000+0  15600-4 0  9991
2 59854  43.0029 106.9461 0001187 270.2223  89.8493 15.27576964116206
STARLINK-31882          
1 59855U 24097W   26162.10332459  .00000548  00000+0  29454-4 0  9992
2 59855  43.0134  99.8414 0001842 283.2282  76.8364 15.27580403116283
STARLINK-31691          
1 59856U 24097X   26162.14075642  .00000269  00000+0  19288-4 0  9999
2 59856  43.0025 106.1843 0000918 270.3409  89.7337 15.27579348116214
STARLINK-31569          
1 59857U 24097Y   26162.56906882 -.00000424  00000+0 -58830-5 0  9997
2 59857  43.0038 104.2453 0001069 257.6464 102.4268 15.27570612116279
STARLINK-31654          
1 59858U 24098A   26162.13741216 -.00000252  00000+0  38503-6 0  9994
2 59858  43.0113 102.8344 0000902 269.4758  90.5991 15.27575871116215
STARLINK-31442          
1 59859U 24098B   26162.14509602  .00000635  00000+0  32602-4 0  9993
2 59859  43.0069 114.1090 0001631 277.1094  82.9572 15.27579679116095
STARLINK-31651          
1 59860U 24098C   26162.56728921  .00001199  00000+0  53102-4 0  9992
2 59860  43.0041 107.8169 0002778 268.9680  91.0853 15.27587781116204
STARLINK-31584          
1 59862U 24098E   26162.16473609 -.00002690  00000+0 -88321-4 0  9990
2 59862  43.0095 109.9606 0000726 273.7500  86.3269 15.27554814116142
STARLINK-31950          
1 59863U 24098F   26162.57502403  .00000126  00000+0  14104-4 0  9999
2 59863  43.0044 107.8712 0000617 267.6754  92.4027 15.27580310116201
STARLINK-31931          
1 59864U 24098G   26162.13530564 -.00000991  00000+0 -26489-4 0  9992
2 59864  43.0049 110.5925 0000876 259.6466 100.4287 15.27571514116138
STARLINK-31938          
1 59865U 24098H   26162.54674361  .00000243  00000+0  18360-4 0  9999
2 59865  43.0075 107.6554 0000749 276.6440  83.4327 15.27588560116205
